STARLINK-1131           
1 45047U 20006D   26068.86193328 -.00000150  00000+0  70610-5 0  9995
2 45047  53.1594 280.1814 0001169  85.5645 274.5489 15.30189910336573
YAM-7                   
1 60504U 24149AN  26068.71799904  .00009009  00000+0  30984-3 0  9997
2 60504  97.3828 149.4631 0001973 296.5121  63.5918 15.30304554 86835
